NORAD_CAT_ID,OBJECT_NAME,OBJECT_TYPE,EPOCH,MEAN_MOTION,ECCENTRICITY,INCLINATION,RA_OF_ASC_NODE,ARG_OF_PERICENTER,MEAN_ANOMALY,BSTAR,MEAN_MOTION_DOT,MEAN_MOTION_DDOT,TLE_LINE0,TLE_LINE1,TLE_LINE2,SEMIMAJOR_AXIS,PERIOD,APOGEE,PERIGEE,DECAYED
50816.0,STARLINK-3342,PAYLOAD,2023-01-22 09:04:16,15.08845567,0.0001262999999999,53.2153,257.163,76.4757,283.6375,0.00017366,2.477e-05,0.0,0 STARLINK-3342,1 50816U 22001P   23022.37797232  .00002477  00000-0  17366-3 0  9990,2 50816  53.2153 257.1630 0001263  76.4757 283.6375 15.08845567 59235,6917.863,95.437,540.602,538.855,0.0
50816.0,STARLINK-3342,PAYLOAD,2023-01-23 20:02:46,15.08841212,9.06e-05,53.2131,250.6191,92.3994,267.7102,0.00017958,2.572e-05,0.0,0 STARLINK-3342,1 50816U 22001P   23023.83525603  .00002572  00000-0  17958-3 0  9996,2 50816  53.2131 250.6191 0000906  92.3994 267.7102 15.08841212 59452,6917.877,95.437,540.368,539.115,0.0
50816.0,STARLINK-3342,PAYLOAD,2023-01-25 00:39:42,15.08846154,0.0001176,53.2137,245.2645,111.4341,248.6776,1.1391e-05,-1.07e-06,0.0,0 STARLINK-3342,1 50816U 22001P   23025.02757243 -.00000107  00000-0  11391-4 0  9995,2 50816  53.2137 245.2645 0001176 111.4341 248.6776 15.08846154 59636,6917.861999999999,95.437,540.54,538.913,0.0
50816.0,STARLINK-3342,PAYLOAD,2023-01-25 07:01:15,15.08840395,0.0001029,53.2135,244.0753,95.5625,264.5484,7.1512e-05,8.51e-06,0.0,0 STARLINK-3342,1 50816U 22001P   23025.29253584  .00000851  00000-0  71512-4 0  9999,2 50816  53.2135 244.0753 0001029  95.5625 264.5484 15.08840395 58391,6917.879,95.438,540.456,539.0319999999999,0.0
50816.0,STARLINK-3342,PAYLOAD,2023-01-25 19:44:20,15.08834197,0.0001020999999999,53.2145,241.6966,95.9574,264.1534,3.1351e-05,2.11e-06,0.0,0 STARLINK-3342,1 50816U 22001P   23025.82246298  .00000211  00000-0  31351-4 0  9999,2 50816  53.2145 241.6966 0001021  95.9574 264.1534 15.08834197 58474,6917.898,95.438,540.469,539.057,0.0
50816.0,STARLINK-3342,PAYLOAD,2023-01-25 21:19:43,15.08836956,9.68e-05,53.2144,241.4002,86.1304,273.9799,4.1323e-05,3.700000000000001e-06,0.0,0 STARLINK-3342,1 50816U 22001P   23025.88870136  .00000370  00000-0  41323-4 0  9995,2 50816  53.2144 241.4002 0000968  86.1304 273.9799 15.08836956 59763,6917.89,95.438,540.424,539.085,0.0
50816.0,STARLINK-3342,PAYLOAD,2023-01-26 13:13:34,15.08839297,0.0001056,53.2142,238.4262,85.6737,274.4375,0.00010958,1.457e-05,0.0,0 STARLINK-3342,1 50816U 22001P   23026.55109909  .00001457  00000-0  10958-3 0  9999,2 50816  53.2142 238.4262 0001056  85.6737 274.4375 15.08839297 58584,6917.883000000001,95.438,540.4780000000001,539.0169999999999,0.0
50816.0,STARLINK-3342,PAYLOAD,2023-01-27 00:21:16,15.08847639,0.0001064,53.2142,236.3444,84.5226,275.5888,0.00012272,1.666e-05,0.0,0 STARLINK-3342,1 50816U 22001P   23027.01477262  .00001666  00000-0  12272-3 0  9994,2 50816  53.2142 236.3444 0001064  84.5226 275.5888 15.08847639 59933,6917.857,95.437,540.4580000000001,538.986,0.0
50816.0,STARLINK-3342,PAYLOAD,2023-01-27 19:25:55,15.08834886,0.0001152,53.2143,232.7757,80.4202,279.692,4.0391e-05,3.55e-06,0.0,0 STARLINK-3342,1 50816U 22001P   23027.80966488  .00000355  00000-0  40391-4 0  9992,2 50816  53.2143 232.7757 0001152  80.4202 279.6920 15.08834886 60055,6917.896,95.438,540.558,538.964,0.0
50816.0,STARLINK-3342,PAYLOAD,2023-01-27 21:01:18,15.08834001,0.0001246,53.2145,232.4783,73.4362,286.6767,3.1969e-05,2.21e-06,0.0,0 STARLINK-3342,1 50816U 22001P   23027.87590631  .00000221  00000-0  31969-4 0  9995,2 50816  53.2145 232.4783 0001246  73.4362 286.6767 15.08834001 58789,6917.899,95.438,540.626,538.9019999999999,0.0
50816.0,STARLINK-3342,PAYLOAD,2023-01-28 14:30:32,15.08843919,0.0001299,53.2144,229.2065,103.3528,256.7609,5.9494e-05,6.59e-06,0.0,0 STARLINK-3342,1 50816U 22001P   23028.60453840  .00000659  00000-0  59494-4 0  9995,2 50816  53.2144 229.2065 0001299 103.3528 256.7609 15.08843919 60177,6917.868,95.437,540.632,538.835,0.0
50816.0,STARLINK-3342,PAYLOAD,2023-01-28 20:52:04,15.088464,0.000124,53.2146,228.0171,99.8488,260.2644,6.8724e-05,8.06e-06,0.0,0 STARLINK-3342,1 50816U 22001P   23028.86949611  .00000806  00000-0  68724-4 0  9999,2 50816  53.2146 228.0171 0001240  99.8488 260.2644 15.08846400 58932,6917.861,95.437,540.584,538.868,0.0
50816.0,STARLINK-3342,PAYLOAD,2023-01-29 12:45:56,15.08837799,0.000122,53.2146,225.044,81.26,278.853,9.8277e-05,1.276e-05,0.0,0 STARLINK-3342,1 50816U 22001P   23029.53190108  .00001276  00000-0  98277-4 0  9991,2 50816  53.2146 225.0440 0001220  81.2600 278.8530 15.08837799 60312,6917.887,95.438,540.596,538.908,0.0
50816.0,STARLINK-3342,PAYLOAD,2023-01-29 19:07:28,15.08840845,0.0001215,53.2145,223.8544,82.4521,277.6609,0.00010555,1.392e-05,0.0,0 STARLINK-3342,1 50816U 22001P   23029.79685902  .00001392  00000-0  10555-3 0  9991,2 50816  53.2145 223.8544 0001215  82.4521 277.6609 15.08840845 59072,6917.878,95.438,540.583,538.902,0.0
50816.0,STARLINK-3342,PAYLOAD,2023-01-30 12:36:43,15.08838558,0.000124,53.2144,220.5833,83.7145,276.3988,-2.7907e-06,-3.32e-06,0.0,0 STARLINK-3342,1 50816U 22001P   23030.52550344 -.00000332  00000-0 -27907-5 0  9991,2 50816  53.2144 220.5833 0001240  83.7145 276.3988 15.08838558 59186,6917.885,95.438,540.608,538.892,0.0
50816.0,STARLINK-3342,PAYLOAD,2023-01-30 18:58:15,15.08839746,0.0001244,53.2144,219.3937,83.4504,276.6629,4.826e-06,-2.11e-06,0.0,0 STARLINK-3342,1 50816U 22001P   23030.79046224 -.00000211  00000-0  48260-5 0  9997,2 50816  53.2144 219.3937 0001244  83.4504 276.6629 15.08839746 60500,6917.881,95.438,540.607,538.886,0.0
50816.0,STARLINK-3342,PAYLOAD,2023-01-31 12:27:30,15.08840562,0.0001228,53.2142,216.1229,82.3902,277.723,6.3701e-05,7.26e-06,0.0,0 STARLINK-3342,1 50816U 22001P   23031.51909977  .00000726  00000-0  63701-4 0  9997,2 50816  53.2142 216.1229 0001228  82.3902 277.7230 15.08840562 59336,6917.879,95.438,540.593,538.894,0.0
50816.0,STARLINK-3342,PAYLOAD,2023-01-31 18:49:02,15.08843174,0.0001227,53.214,214.9332,83.3173,276.7959,8.3431e-05,1.04e-05,0.0,0 STARLINK-3342,1 50816U 22001P   23031.78405713  .00001040  00000-0  83431-4 0  9997,2 50816  53.2140 214.9332 0001227  83.3173 276.7959 15.08843174 59378,6917.871,95.437,540.585,538.887,0.0
50816.0,STARLINK-3342,PAYLOAD,2023-02-01 12:18:17,15.08836215,0.0001235,53.2126,211.661,83.2905,276.8227,6.3797e-05,7.28e-06,0.0,0 STARLINK-3342,1 50816U 22001P   23032.51270213  .00000728  00000-0  63797-4 0  9999,2 50816  53.2126 211.6610 0001235  83.2905 276.8227 15.08836215 60768,6917.892,95.438,540.611,538.903,0.0
50816.0,STARLINK-3342,PAYLOAD,2023-02-02 12:09:04,15.08838143,0.000115,53.2138,207.2007,84.3758,275.7365,1.848e-05,6e-08,0.0,0 STARLINK-3342,1 50816U 22001P   23033.50630338  .00000006  00000-0  18480-4 0  9995,2 50816  53.2138 207.2007 0001150  84.3758 275.7365 15.08838143 59633,6917.886,95.438,540.547,538.956,0.0
50816.0,STARLINK-3342,PAYLOAD,2023-02-02 21:41:23,15.08842341,0.0001227,53.2144,205.4168,86.1155,273.9978,3.3552e-05,2.46e-06,0.0,0 STARLINK-3342,1 50816U 22001P   23033.90374019  .00000246  00000-0  33552-4 0  9993,2 50816  53.2144 205.4168 0001227  86.1155 273.9978 15.08842341 60978,6917.873,95.437,540.587,538.889,0.0
50816.0,STARLINK-3342,PAYLOAD,2023-02-03 11:59:52,15.08832819,0.0001222,53.2141,202.7401,86.303,273.8102,1.6919e-05,-1.9e-07,0.0,0 STARLINK-3342,1 50816U 22001P   23034.49990798 -.00000019  00000-0  16919-4 0  9993,2 50816  53.2141 202.7401 0001222  86.3030 273.8102 15.08832819 61062,6917.902,95.438,540.613,538.922,0.0
50816.0,STARLINK-3342,PAYLOAD,2023-02-04 11:50:38,15.08833729,0.0001265,53.2146,198.2792,90.4771,269.6366,0.0001251,1.703e-05,0.0,0 STARLINK-3342,1 50816U 22001P   23035.49350634  .00001703  00000-0  12510-3 0  9995,2 50816  53.2146 198.2792 0001265  90.4771 269.6366 15.08833729 59933,6917.9,95.438,540.64,538.889,0.0
50816.0,STARLINK-3342,PAYLOAD,2023-02-04 19:47:34,15.08844372,0.000123,53.2147,196.7925,90.4052,269.7081,6.9344e-05,8.16e-06,0.0,0 STARLINK-3342,1 50816U 22001P   23035.82470056  .00000816  00000-0  69344-4 0  9995,2 50816  53.2147 196.7925 0001230  90.4052 269.7081 15.08844372 61269,6917.867,95.437,540.583,538.881,0.0
50816.0,STARLINK-3342,PAYLOAD,2023-02-05 03:44:30,15.08839024,0.0001076,53.2145,195.3058,89.3242,270.7873,2.3248e-05,8.2e-07,0.0,0 STARLINK-3342,1 50816U 22001P   23036.15590495  .00000082  00000-0  23248-4 0  9990,2 50816  53.2145 195.3058 0001076  89.3242 270.7873 15.08839024 61310,6917.883,95.438,540.493,539.004,0.0
50816.0,STARLINK-3342,PAYLOAD,2023-02-05 10:06:03,15.08833,0.0001272,53.2148,194.1168,87.5452,272.5685,4.3707e-05,4.08e-06,0.0,0 STARLINK-3342,1 50816U 22001P   23036.42086985  .00000408  00000-0  43707-4 0  9998,2 50816  53.2148 194.1168 0001272  87.5452 272.5685 15.08833000 60074,6917.902,95.438,540.647,538.887,0.0
50816.0,STARLINK-3342,PAYLOAD,2023-02-05 19:38:21,15.08837596,0.0001229,53.2151,192.3322,88.198,271.9153,2.2964e-05,7.8e-07,0.0,0 STARLINK-3342,1 50816U 22001P   23036.81830834  .00000078  00000-0  22964-4 0  9996,2 50816  53.2151 192.3322 0001229  88.1980 271.9153 15.08837596 60139,6917.888,95.438,540.603,538.903,0.0
50816.0,STARLINK-3342,PAYLOAD,2023-02-06 09:56:49,15.08839649,0.000117,53.215,189.6565,89.1201,270.9925,6.4886e-05,7.45e-06,0.0,0 STARLINK-3342,1 50816U 22001P   23037.41446651  .00000745  00000-0  64886-4 0  9993,2 50816  53.2150 189.6565 0001170  89.1201 270.9925 15.08839649 61507,6917.881,95.438,540.556,538.937,0.0
50816.0,STARLINK-3342,PAYLOAD,2023-02-06 16:18:22,15.08846474,0.0001212,53.2149,188.4674,77.7306,282.3822,7.9663e-05,9.8e-06,0.0,0 STARLINK-3342,1 50816U 22001P   23037.67942204  .00000980  00000-0  79663-4 0  9996,2 50816  53.2149 188.4674 0001212  77.7306 282.3822 15.08846474 60268,6917.861,95.437,540.564,538.887,0.0
50816.0,STARLINK-3342,PAYLOAD,2023-02-07 03:26:03,15.08849039,0.0001267,53.216,186.3867,84.4661,275.6476,6.198e-05,6.99e-06,0.0,0 STARLINK-3342,1 50816U 22001P   23038.14309951  .00000699  00000-0  61980-4 0  9995,2 50816  53.2160 186.3867 0001267  84.4661 275.6476 15.08849039 61611,6917.853,95.437,540.594,538.841,0.0
